{"type": "FeatureCollection", "features": [{"type": "Feature", "properties": {"track": "walk-05", "length_m": 371, "grade_pct": -1.33, "elev_min": 174.9, "elev_max": 180.2}, "geometry": {"type": "LineString", "coordinates": [[-72.98111910757943, 44.500456476338904], [-72.9811905476788, 44.500362087119], [-72.98127468244704, 44.50027244442064], [-72.98135118855097, 44.50017947589471], [-72.98143562716233, 44.50009018375493], [-72.98151966169969, 44.50000068655175], [-72.98161346267604, 44.49991654867238], [-72.9817107181591, 44.49983392572148], [-72.98181066347425, 44.499753230994905], [-72.98191223818336, 44.4996734713987], [-72.98202176062993, 44.49959941379811], [-72.98214339619426, 44.49953801101283], [-72.98228452145005, 44.49949978940316], [-72.98241618580008, 44.49944760701424], [-72.98252681995474, 44.49937442890645], [-72.98265126370165, 44.49931539324782], [-72.98279484595513, 44.49928233396889], [-72.98292468908674, 44.49922987951688], [-72.98305473444191, 44.49917658068115], [-72.98319250034139, 44.49913306200648], [-72.98334035531855, 44.499112192408546], [-72.98348371149459, 44.49908136877301], [-72.9836234248085, 44.499041054825824], [-72.9837720064536, 44.4990233180702], [-72.98391664688614, 44.49899241633855], [-72.98406622180714, 44.498977774136875], [-72.9842138109167, 44.49895569957038], [-72.98436153647619, 44.498934187817625], [-72.98450846355365, 44.49891134912396], [-72.98465744455731, 44.49889674881777], [-72.98480750623071, 44.49888415383523], [-72.98495847172224, 44.498879217000464]]}}, {"type": "Feature", "properties": {"track": "walk-06", "length_m": 263, "grade_pct": -1.3, "elev_min": 176.2, "elev_max": 180.1}, "geometry": {"type": "LineString", "coordinates": [[-72.98115289262695, 44.50039685279374], [-72.98122965723073, 44.50030409260175], [-72.98131395944739, 44.500214859496886], [-72.98139599416578, 44.50012452243872], [-72.9814816799106, 44.500035736532375], [-72.98157106169913, 44.499949144781795], [-72.98167059299897, 44.49986826528814], [-72.98175916364703, 44.49978107297507], [-72.98185058112132, 44.49969511668593], [-72.98196146975171, 44.49962202066293], [-72.98208413145362, 44.49955910039622], [-72.98222747336966, 44.499529367073904], [-72.98236432032888, 44.49948758854264], [-72.98248416710376, 44.499421854679895], [-72.98259598885089, 44.499349631109965], [-72.9827224462224, 44.49929080005671], [-72.9828654854815, 44.49925696907775], [-72.98298582357953, 44.49919464144634], [-72.9831235057454, 44.49915034489839], [-72.98326830071802, 44.49912299340154], [-72.98341393330952, 44.49909779501596], [-72.98354741665761, 44.499047287075896], [-72.98369424595572, 44.49902295762211]]}}, {"type": "Feature", "properties": {"track": "walk-05", "length_m": 251, "grade_pct": 1.63, "elev_min": 175.1, "elev_max": 179.2}, "geometry": {"type": "LineString", "coordinates": [[-72.98492596980378, 44.498928386936036], [-72.98477516350373, 44.498928740438316], [-72.98462457849794, 44.498930507737285], [-72.9844781948157, 44.498956697812844], [-72.98433228094494, 44.49898394948377], [-72.98418464498462, 44.49900663054895], [-72.98403533003575, 44.499023208503814], [-72.98388998739428, 44.49905185485717], [-72.98374238195032, 44.49907101199725], [-72.98359347893285, 44.49908012295418], [-72.98345603244921, 44.49912423472703], [-72.98331030295334, 44.49914767976731], [-72.98316754987785, 44.49918158716253], [-72.98303045242409, 44.4992262132986], [-72.98291231725274, 44.499292826855545], [-72.98277032214162, 44.49932763388782], [-72.98263947905275, 44.499377179600685], [-72.98253031215319, 44.499451720406014], [-72.98240739883798, 44.49951437426894], [-72.98226763596405, 44.49955049248684], [-72.98213567368668, 44.499601290086595], [-72.98202610170438, 44.499674595386104]]}}, {"type": "Feature", "properties": {"track": "walk-04", "length_m": 236, "grade_pct": 1.24, "elev_min": 202.0, "elev_max": 205.1}, "geometry": {"type": "LineString", "coordinates": [[-72.9754296501877, 44.50362268150068], [-72.97554721900542, 44.50355583575626], [-72.97566855228027, 44.503492442049755], [-72.97580246351332, 44.50351479812597], [-72.97593094189715, 44.50357149370988], [-72.976036207726, 44.50364890945719], [-72.976154609731, 44.503715447758815], [-72.97629159951336, 44.50375707030713], [-72.97643782649581, 44.50378366881636], [-72.97658013360362, 44.503819140554064], [-72.97672110283946, 44.50385721668758], [-72.97686162464687, 44.50389677723547], [-72.97699887146224, 44.50394178213223], [-72.97712380170503, 44.5039754126728], [-72.97727028079538, 44.50399930665861], [-72.97741108849404, 44.50403696619365], [-72.97754136254142, 44.504090840025334], [-72.97764946477771, 44.50416548506099], [-72.97775513677333, 44.50424086448503], [-72.9778787474425, 44.50430211197772], [-72.97802512177539, 44.50430661750132]]}}, {"type": "Feature", "properties": {"track": "walk-06", "length_m": 227, "grade_pct": -0.84, "elev_min": 201.6, "elev_max": 204.0}, "geometry": {"type": "LineString", "coordinates": [[-72.97347225344687, 44.50241293435164], [-72.97360770975305, 44.50245939652588], [-72.97371697402055, 44.50253356564398], [-72.97382316213033, 44.5026102490082], [-72.97391243791613, 44.50269726800435], [-72.97400895776157, 44.502780319484195], [-72.9741136465435, 44.502857723594914], [-72.97420334329905, 44.50294413390957], [-72.97429544503275, 44.503029320437456], [-72.97440077888497, 44.5031066466573], [-72.97450809703895, 44.50318185111578], [-72.97464411280792, 44.50322856186241], [-72.97478218754536, 44.50327216702311], [-72.97491932059114, 44.5033174484954], [-72.975049576334, 44.503370223541644], [-72.9751569492858, 44.5034461997207], [-72.9752607687631, 44.503524153901004], [-72.97537099946878, 44.50359737835193], [-72.97544381937425, 44.50368504714361], [-72.97537350263484, 44.50377917169949]]}}, {"type": "Feature", "properties": {"track": "walk-07", "length_m": 225, "grade_pct": -0.77, "elev_min": 201.5, "elev_max": 203.8}, "geometry": {"type": "LineString", "coordinates": [[-72.97338042820773, 44.502405331684876], [-72.97352654788115, 44.50243175941879], [-72.97364543308883, 44.50249526430113], [-72.97375812428804, 44.502567111461936], [-72.973864505756, 44.502643713155024], [-72.97396578667728, 44.502723663864], [-72.97405484052676, 44.50280990087938], [-72.97415431866541, 44.50289031384385], [-72.97425618198308, 44.50296996785107], [-72.97435218290633, 44.50305335031166], [-72.9744419416433, 44.5031401028301], [-72.97456666147963, 44.50319668715207], [-72.97470200865816, 44.50324405937559], [-72.97483557897482, 44.50329424506078], [-72.97497689149256, 44.503332500211584], [-72.97510195853131, 44.50338955837475], [-72.97518912303703, 44.50347759276574], [-72.97529681270974, 44.50355214860844], [-72.97541209355471, 44.50362167712427], [-72.97540391138973, 44.50371579320307]]}}, {"type": "Feature", "properties": {"track": "walk-06", "length_m": 215, "grade_pct": 1.59, "elev_min": 175.8, "elev_max": 179.3}, "geometry": {"type": "LineString", "coordinates": [[-72.98425106071363, 44.49899687113407], [-72.98410554353869, 44.499024585819875], [-72.9839549747665, 44.4990324202662], [-72.98381156228909, 44.499065640026515], [-72.98366499595676, 44.49909096283661], [-72.98352168197677, 44.49912132366672], [-72.98337663376077, 44.49915061865867], [-72.98322908437574, 44.499169793993765], [-72.98309040990043, 44.49921203219486], [-72.98295947503941, 44.49926466867336], [-72.98282606333935, 44.49931362415857], [-72.98268869184304, 44.49935752004227], [-72.98257171779926, 44.499425638652994], [-72.98245715845125, 44.499495223969234], [-72.98232837343213, 44.49955132082608], [-72.98218528837772, 44.499584542407455], [-72.98207218636277, 44.49965375280125], [-72.98195738556629, 44.49972340349634], [-72.98184513908781, 44.499794758362995]]}}, {"type": "Feature", "properties": {"track": "walk-08", "length_m": 214, "grade_pct": -0.87, "elev_min": 201.7, "elev_max": 203.8}, "geometry": {"type": "LineString", "coordinates": [[-72.97352748518738, 44.50240839567401], [-72.9736361888191, 44.50246619446043], [-72.97374205542646, 44.50254106483727], [-72.97383689702576, 44.502624487655574], [-72.97394675998639, 44.50269780624462], [-72.9740331581425, 44.50278618873517], [-72.97414248193886, 44.50286020684876], [-72.9742397476668, 44.50294276187238], [-72.97433881776257, 44.50302427661388], [-72.97443239803881, 44.50310903286316], [-72.97455041912094, 44.50317526132306], [-72.97467994662621, 44.503230833621444], [-72.97481425570041, 44.50327994232614], [-72.97495478918692, 44.50331892625571], [-72.97508580792328, 44.50336951537746], [-72.97518691701976, 44.50344932097107], [-72.97528065356816, 44.5035338074624], [-72.97538692981433, 44.50361038038923], [-72.97541187134746, 44.503713900447366]]}}, {"type": "Feature", "properties": {"track": "walk-01", "length_m": 208, "grade_pct": -0.75, "elev_min": 201.5, "elev_max": 203.6}, "geometry": {"type": "LineString", "coordinates": [[-72.97375631250654, 44.502385272475316], [-72.97363600486977, 44.502446278616254], [-72.97370512591037, 44.50253480189739], [-72.97381723699066, 44.502606168072155], [-72.97391196456203, 44.50269027866505], [-72.97400941529726, 44.502757991659095], [-72.97404638949149, 44.50282164068518], [-72.97415166658875, 44.50289756897758], [-72.97423857440502, 44.5029858067472], [-72.97433054452779, 44.503071228863746], [-72.97442142334742, 44.50315643472412], [-72.9745537868917, 44.503207623519145], [-72.97468863654386, 44.50325554825055], [-72.97482611607576, 44.503299885519795], [-72.9749736197208, 44.503320084292795], [-72.9750833877722, 44.503388870711284], [-72.97517046865424, 44.50347708090559], [-72.97527972096235, 44.50355113633376], [-72.97536811647997, 44.50363779527039]]}}, {"type": "Feature", "properties": {"track": "walk-04", "length_m": 203, "grade_pct": -1.43, "elev_min": 200.0, "elev_max": 203.0}, "geometry": {"type": "LineString", "coordinates": [[-72.97379820941396, 44.50232190712197], [-72.97392194647117, 44.50225994048457], [-72.97404233923731, 44.50219483024197], [-72.97417358551948, 44.502142902235434], [-72.97430631614786, 44.50209163752469], [-72.97444372758615, 44.502047198137014], [-72.97458754121608, 44.50201541568605], [-72.97472020507287, 44.501963732625704], [-72.97484418684151, 44.50190200679253], [-72.97494065831673, 44.501825597451536], [-72.97502710808706, 44.50184357118853], [-72.97512428330366, 44.501765252302064], [-72.97520440515119, 44.50173697508449], [-72.97534152526488, 44.50169166590364], [-72.97548176823874, 44.50165229524557], [-72.9756235933718, 44.50161533701818], [-72.97576806157646, 44.50158809881958], [-72.97590533300828, 44.50163095561948], [-72.97600704853868, 44.50168987765183]]}}, {"type": "Feature", "properties": {"track": "walk-01", "length_m": 202, "grade_pct": 1.46, "elev_min": 200.6, "elev_max": 203.6}, "geometry": {"type": "LineString", "coordinates": [[-72.97572664744723, 44.50162598171729], [-72.97558892113565, 44.501669595027934], [-72.97544949627965, 44.50171018544359], [-72.97531137783685, 44.501751213852145], [-72.97516672323731, 44.50177853566654], [-72.97504064158825, 44.501837480716844], [-72.97491902402359, 44.50190142033209], [-72.97480161618604, 44.50196924482185], [-72.97466884049678, 44.50202071760886], [-72.97453607183088, 44.50207128349963], [-72.97439241194238, 44.502104043840745], [-72.97426022493772, 44.50215448674359], [-72.97413343749784, 44.5022124367302], [-72.97399384781731, 44.50225300366093], [-72.97387537560407, 44.50231951264421], [-72.97375631250654, 44.502385272475316], [-72.97363600486977, 44.502446278616254], [-72.97370512591037, 44.50253480189739]]}}, {"type": "Feature", "properties": {"track": "walk-02", "length_m": 190, "grade_pct": 0.83, "elev_min": 201.1, "elev_max": 203.1}, "geometry": {"type": "LineString", "coordinates": [[-72.97567652257264, 44.50187950531232], [-72.97553222956677, 44.501911585233046], [-72.97540093339238, 44.50196404614225], [-72.9752853020699, 44.50203327698927], [-72.97515297027702, 44.50207933017243], [-72.97500632643421, 44.50210447535955], [-72.97486809243604, 44.502146050552014], [-72.97478367759358, 44.50223187676565], [-72.97471466324734, 44.502326847435434], [-72.97462055370762, 44.50241127822456], [-72.97452817192983, 44.50249578028601], [-72.97439734407574, 44.502549367023256], [-72.97429120509075, 44.5026249888281], [-72.97420216337787, 44.50271221313787], [-72.97412660845212, 44.502804962845076], [-72.97414400285874, 44.50290575631164], [-72.97424876797908, 44.50298324547774]]}}, {"type": "Feature", "properties": {"track": "walk-03", "length_m": 190, "grade_pct": 1.12, "elev_min": 201.7, "elev_max": 203.9}, "geometry": {"type": "LineString", "coordinates": [[-72.97496983694846, 44.503376064253175], [-72.97483200679214, 44.50333314783412], [-72.9747053481424, 44.50327581508565], [-72.97456755179293, 44.50323608166645], [-72.9744350654595, 44.50318578121172], [-72.974332741687, 44.503106848066565], [-72.97422963027394, 44.50302918816517], [-72.974135775433, 44.50294476522618], [-72.97405090526341, 44.50285713418107], [-72.97395756032851, 44.502774185002416], [-72.97385870793653, 44.502693089621374], [-72.97375273025781, 44.502617228830125], [-72.97365756414735, 44.50253344827306], [-72.97354907487748, 44.502461707166255], [-72.97340562413831, 44.50242838519958], [-72.9732555644555, 44.502416386889564], [-72.97311077543533, 44.50243802024611]]}}, {"type": "Feature", "properties": {"track": "walk-05", "length_m": 190, "grade_pct": 0.9, "elev_min": 201.0, "elev_max": 203.1}, "geometry": {"type": "LineString", "coordinates": [[-72.97572068654812, 44.50188624458761], [-72.97557275139405, 44.50190613837525], [-72.97543641956808, 44.50195115048342], [-72.97530916933074, 44.5020090979758], [-72.97519017380434, 44.50207474960585], [-72.9750458230092, 44.502105187653775], [-72.97490202957174, 44.50213354721923], [-72.97481233227302, 44.50221899343415], [-72.97473907493139, 44.50231322553978], [-72.97464227641713, 44.50239584781103], [-72.974548811892, 44.50248042458257], [-72.97441922856598, 44.502535448024595], [-72.97430598615662, 44.502603788894625], [-72.97423414035106, 44.502698669089156], [-72.9741562185733, 44.502789811579134], [-72.97416536841165, 44.50289304793398], [-72.97425895996338, 44.502977628805056]]}}, {"type": "Feature", "properties": {"track": "walk-04", "length_m": 187, "grade_pct": 0.86, "elev_min": 201.1, "elev_max": 202.9}, "geometry": {"type": "LineString", "coordinates": [[-72.97568643360557, 44.50188633945499], [-72.97554289747522, 44.501919240719786], [-72.97541120232715, 44.50197215676493], [-72.97529307812464, 44.502038957784485], [-72.97516009936793, 44.502088093806066], [-72.97501194578275, 44.50210851337374], [-72.9748755664066, 44.50215418383295], [-72.97480168989243, 44.50224705686088], [-72.97471764149948, 44.50233643110489], [-72.97462482533838, 44.502421472325494], [-72.97452746412625, 44.5025027675437], [-72.97439514273835, 44.50255481682503], [-72.974308202793, 44.50264118900377], [-72.9742183137057, 44.502727870240065], [-72.9741479724316, 44.50282298111618], [-72.97416656584448, 44.50291791898018], [-72.97423274529775, 44.50298402176256]]}}, {"type": "Feature", "properties": {"track": "walk-07", "length_m": 184, "grade_pct": 1.04, "elev_min": 204.4, "elev_max": 206.7}, "geometry": {"type": "LineString", "coordinates": [[-72.97676159730491, 44.50398633904378], [-72.97685717699274, 44.50406954315961], [-72.97692736343078, 44.50416332797455], [-72.97700924474537, 44.504248708665976], [-72.97714513481009, 44.50429587111316], [-72.97728182182567, 44.50434141497255], [-72.97743178200058, 44.50434124737328], [-72.97757786409332, 44.50436048477173], [-72.97769232234756, 44.50443064782895], [-72.9777912287134, 44.50451226763516], [-72.97791559848044, 44.50457297190924], [-72.97803393202634, 44.50463993002825], [-72.97816682606341, 44.50469112619489], [-72.97822958097134, 44.50476111844182], [-72.97833171296271, 44.50477743621106], [-72.97847202353509, 44.50481054600075], [-72.97861221475382, 44.50477212438187]]}}, {"type": "Feature", "properties": {"track": "walk-08", "length_m": 180, "grade_pct": -1.51, "elev_min": 200.8, "elev_max": 203.5}, "geometry": {"type": "LineString", "coordinates": [[-72.97361436019514, 44.502402994825616], [-72.9737392218639, 44.50234499865745], [-72.97385810089143, 44.50227851900785], [-72.9739856579801, 44.50222066384711], [-72.97411815857589, 44.50216906235599], [-72.97424290695483, 44.502108532075766], [-72.97438065586493, 44.502064211318334], [-72.97452424078742, 44.50203150000135], [-72.97466177236545, 44.50198696965522], [-72.97478289986286, 44.50192255260625], [-72.97490738518103, 44.501861556592395], [-72.97502949428385, 44.50179793550957], [-72.97516333265622, 44.50174962377076], [-72.97530182687204, 44.50170706867095], [-72.97544304593872, 44.501668790442366], [-72.97558541765869, 44.50163352533791]]}}, {"type": "Feature", "properties": {"track": "walk-08", "length_m": 179, "grade_pct": 1.39, "elev_min": 201.4, "elev_max": 204.1}, "geometry": {"type": "LineString", "coordinates": [[-72.97492828400553, 44.50336989617338], [-72.9747819239038, 44.50334334374868], [-72.97464748206448, 44.50329469253459], [-72.97451660857718, 44.50324094612698], [-72.97439281793805, 44.503180060739616], [-72.97429563900504, 44.50309739731172], [-72.97419412338847, 44.50301751277439], [-72.9740993353711, 44.502933769029966], [-72.97399715207628, 44.50285502725192], [-72.9739091889758, 44.50276896008492], [-72.97381145993039, 44.50268663777269], [-72.97371329029575, 44.50260455524564], [-72.9735931558298, 44.50254021279356], [-72.9734830679626, 44.502470317656574], [-72.97333488195096, 44.50245015058835], [-72.97318595501699, 44.50243894945567]]}}, {"type": "Feature", "properties": {"track": "walk-02", "length_m": 178, "grade_pct": -1.26, "elev_min": 176.8, "elev_max": 179.3}, "geometry": {"type": "LineString", "coordinates": [[-72.98166748594261, 44.49987230071859], [-72.98174905548521, 44.49978155054934], [-72.9818477373539, 44.499699828445024], [-72.98195589444929, 44.49962476732473], [-72.98207335768282, 44.49955714033454], [-72.9822133584979, 44.49951956354831], [-72.98235375351032, 44.499483564710346], [-72.98246660065587, 44.499412338835526], [-72.98258233535223, 44.499342950820335], [-72.98271319434343, 44.4992894845489], [-72.98285387142867, 44.49925252089727], [-72.98297379013333, 44.49918722749081], [-72.98311370842764, 44.499147304097995], [-72.98326035576927, 44.49912167162889], [-72.98340728663833, 44.499097058258826], [-72.98353635854309, 44.49909841414965]]}}, {"type": "Feature", "properties": {"track": "walk-05", "length_m": 173, "grade_pct": 1.24, "elev_min": 201.6, "elev_max": 204.0}, "geometry": {"type": "LineString", "coordinates": [[-72.97485578522236, 44.50335447541577], [-72.97478972207945, 44.50332836841136], [-72.97465037167846, 44.50328663309467], [-72.97451028683814, 44.5032465880903], [-72.97437990771942, 44.503193734583185], [-72.9742863568868, 44.503109109193744], [-72.97419645349629, 44.50302234166749], [-72.974105102222, 44.50293640965648], [-72.97401414295678, 44.50285082460523], [-72.97391742314159, 44.502769336997616], [-72.97381604064978, 44.50268966023901], [-72.97372431650201, 44.50260402175386], [-72.97361776330257, 44.50252771708373], [-72.97349984024163, 44.5024622134051], [-72.97335250241436, 44.502441649986785], [-72.9732036869545, 44.50243498884449]]}}, {"type": "Feature", "properties": {"track": "walk-02", "length_m": 166, "grade_pct": 1.45, "elev_min": 176.7, "elev_max": 179.2}, "geometry": {"type": "LineString", "coordinates": [[-72.98353186146718, 44.499108543865404], [-72.98340751050148, 44.49914431538081], [-72.98326208329826, 44.49917098649746], [-72.98311600146415, 44.49919668107395], [-72.98298554894785, 44.49925106543758], [-72.98286513563495, 44.499314636866224], [-72.98272200495245, 44.499349163684336], [-72.98259063378079, 44.49940107128576], [-72.98248216264328, 44.49947603040999], [-72.98236593428106, 44.4995440585333], [-72.98222356506344, 44.499576882493976], [-72.9820936578653, 44.49962635745181], [-72.98198474886038, 44.499701143197136], [-72.98187532759546, 44.49977552333171], [-72.98177695001937, 44.49985683322512]]}}, {"type": "Feature", "properties": {"track": "walk-07", "length_m": 155, "grade_pct": 1.25, "elev_min": 201.7, "elev_max": 204.1}, "geometry": {"type": "LineString", "coordinates": [[-72.97491571460583, 44.50335326067718], [-72.97476686070547, 44.50333536862561], [-72.9746330195719, 44.5032865805506], [-72.97450595838302, 44.50322820971788], [-72.97438188153843, 44.50316781209446], [-72.97428540840306, 44.503084940311524], [-72.97418805964955, 44.503002370695256], [-72.97409491085018, 44.50291739703152], [-72.97399488087095, 44.50283778496778], [-72.97389703686541, 44.502756235653585], [-72.97379499281031, 44.50267679041789], [-72.97368853672427, 44.50260022135286], [-72.97357157081336, 44.502532149654314], [-72.97347852422934, 44.50245235161646]]}}, {"type": "Feature", "properties": {"track": "walk-02", "length_m": 154, "grade_pct": -0.57, "elev_min": 175.7, "elev_max": 176.8}, "geometry": {"type": "LineString", "coordinates": [[-72.98677829252196, 44.50076010660362], [-72.98689090397043, 44.500823670462815], [-72.98704084540519, 44.500835461001614], [-72.98718822238631, 44.50081934619923], [-72.98733592868311, 44.500828106000796], [-72.98747390148604, 44.50087209332186], [-72.98761577870219, 44.50090755556103], [-72.98776465034209, 44.5009244714566], [-72.98790989979162, 44.500945856568016], [-72.98805524832882, 44.500971789706064], [-72.9881831555605, 44.5010289239505], [-72.98825861746424, 44.50112163290107], [-72.98836603359491, 44.50119740654025], [-72.98848439996527, 44.50126353790071]]}}, {"type": "Feature", "properties": {"track": "walk-03", "length_m": 154, "grade_pct": 0.65, "elev_min": 201.9, "elev_max": 203.1}, "geometry": {"type": "LineString", "coordinates": [[-72.97536422136318, 44.50198808002587], [-72.97524149337217, 44.50205068371746], [-72.97509643529047, 44.50207910554268], [-72.97495073413283, 44.502106315718066], [-72.97484004855353, 44.50217045356098], [-72.97476984786613, 44.50226584712264], [-72.97468204922271, 44.50235327291174], [-72.97459674609941, 44.502442305208326], [-72.97448322401002, 44.50251189313032], [-72.97435698542053, 44.50257021841259], [-72.97427058742547, 44.50265869651648], [-72.97418113360358, 44.50274559142353], [-72.9741348226607, 44.50284721459893], [-72.9742113706005, 44.50293698792298]]}}, {"type": "Feature", "properties": {"track": "walk-05", "length_m": 154, "grade_pct": -0.7, "elev_min": 201.6, "elev_max": 203.1}, "geometry": {"type": "LineString", "coordinates": [[-72.9741562185733, 44.502789811579134], [-72.97416536841165, 44.50289304793398], [-72.97425895996338, 44.502977628805056], [-72.97434997162664, 44.50306359777974], [-72.97444941838063, 44.50314487360285], [-72.97457985797215, 44.50319857478818], [-72.97472126636728, 44.5032365013549], [-72.97485596988639, 44.50328495271457], [-72.97499835427465, 44.50332067572575], [-72.97511324673125, 44.50339001929712], [-72.97520489510667, 44.50347578202539], [-72.97531166291147, 44.50355172107862], [-72.9754187301334, 44.50362741402282], [-72.97542602716462, 44.503727943742504]]}}, {"type": "Feature", "properties": {"track": "walk-06", "length_m": 154, "grade_pct": -0.57, "elev_min": 202.1, "elev_max": 203.0}, "geometry": {"type": "LineString", "coordinates": [[-72.97411888885756, 44.50295021700094], [-72.97407839194594, 44.50284799910623], [-72.97411458560643, 44.50274420656591], [-72.97419791930484, 44.50265465096535], [-72.97427474634229, 44.50256176411445], [-72.9743952550754, 44.50250068667264], [-72.97450675965604, 44.50243441359006], [-72.97459256513517, 44.50234647736627], [-72.97468578386514, 44.502261644766776], [-72.97474889098376, 44.50216371485111], [-72.97485044283117, 44.50208582487561], [-72.97499434704403, 44.50205552124353], [-72.97514218022874, 44.5020332043438], [-72.97526508831422, 44.501974500367524]]}}, {"type": "Feature", "properties": {"track": "walk-04", "length_m": 153, "grade_pct": 1.15, "elev_min": 201.7, "elev_max": 203.5}, "geometry": {"type": "LineString", "coordinates": [[-72.97517589354727, 44.50208553094158], [-72.97502975625645, 44.502111085187344], [-72.97488882219564, 44.50214763250102], [-72.97480325895769, 44.50223501482762], [-72.97472286125566, 44.502312199660295], [-72.97463177192351, 44.50239765968779], [-72.97454596896722, 44.50248608919039], [-72.97441475649062, 44.50253863338364], [-72.97431652377966, 44.5026166919241], [-72.97424450018647, 44.50271147066517], [-72.97416157588597, 44.50280164508897], [-72.97403087006599, 44.50284501589545], [-72.97392202187372, 44.502772570936436], [-72.97382077756362, 44.5026924832628]]}}]}