{"type": "Feature", "properties": {"snapped": true, "length_m": 2357}, "geometry": {"type": "LineString", "coordinates": [[-72.999172, 44.499888], [-72.99909, 44.499929], [-72.999013, 44.499974], [-72.998942, 44.500024], [-72.998876, 44.500078], [-72.998809, 44.500131], [-72.998732, 44.500177], [-72.998642, 44.500213], [-72.998551, 44.500248], [-72.998473, 44.500294], [-72.998403, 44.500346], [-72.998333, 44.500398], [-72.998266, 44.500452], [-72.998199, 44.500507], [-72.99813, 44.50056], [-72.998057, 44.500609], [-72.997982, 44.500657], [-72.997905, 44.500704], [-72.997828, 44.50075], [-72.997754, 44.500799], [-72.997686, 44.500852], [-72.997624, 44.500909], [-72.997559, 44.500964], [-72.997484, 44.501013], [-72.997405, 44.501058], [-72.997327, 44.501104], [-72.997245, 44.501147], [-72.99716, 44.501188], [-72.997084, 44.501235], [-72.997015, 44.501288], [-72.996947, 44.501341], [-72.996875, 44.501391], [-72.9968, 44.50144], [-72.996728, 44.50149], [-72.996663, 44.501545], [-72.996605, 44.501605], [-72.996543, 44.501664], [-72.996473, 44.501716], [-72.996395, 44.501762], [-72.996316, 44.501808], [-72.996243, 44.501859], [-72.996172, 44.501912], [-72.996088, 44.501952], [-72.99599, 44.501977], [-72.995889, 44.501997], [-72.995796, 44.502025], [-72.99571, 44.502062], [-72.995624, 44.502101], [-72.995534, 44.502133], [-72.995437, 44.502153], [-72.995334, 44.502159], [-72.995227, 44.502158], [-72.995124, 44.502164], [-72.995027, 44.502183], [-72.994936, 44.502212], [-72.994847, 44.50224], [-72.994755, 44.502263], [-72.994659, 44.502282], [-72.994559, 44.502292], [-72.994458, 44.502292], [-72.994357, 44.502294], [-72.994258, 44.502311], [-72.99416, 44.502333], [-72.994062, 44.502343], [-72.993962, 44.502344], [-72.99386, 44.502353], [-72.993757, 44.502374], [-72.993656, 44.502381], [-72.993557, 44.502359], [-72.99346, 44.502326], [-72.993361, 44.502306], [-72.993259, 44.502303], [-72.993158, 44.502302], [-72.993057, 44.502298], [-72.992957, 44.50229], [-72.992858, 44.502276], [-72.992759, 44.50226], [-72.992661, 44.502244], [-72.992563, 44.502226], [-72.992467, 44.502204], [-72.992369, 44.502184], [-72.992267, 44.502172], [-72.992164, 44.502161], [-72.99207, 44.502135], [-72.991988, 44.50209], [-72.991908, 44.502043], [-72.991817, 44.50201], [-72.991721, 44.501987], [-72.991629, 44.501958], [-72.991546, 44.501918], [-72.991469, 44.50187], [-72.991395, 44.501819], [-72.991315, 44.501775], [-72.991226, 44.501739], [-72.991136, 44.501703], [-72.991058, 44.501657], [-72.990991, 44.501603], [-72.990925, 44.501548], [-72.990862, 44.501492], [-72.990805, 44.501432], [-72.990739, 44.501377], [-72.99066, 44.50133], [-72.990581, 44.501284], [-72.990505, 44.501236], [-72.990431, 44.501186], [-72.990375, 44.501126], [-72.990343, 44.501051], [-72.990311, 44.500976], [-72.990251, 44.500918], [-72.990163, 44.500877], [-72.99007, 44.500838], [-72.989985, 44.500795], [-72.989907, 44.500748], [-72.989843, 44.500692], [-72.989793, 44.500629], [-72.989738, 44.500567], [-72.989668, 44.500515], [-72.98959, 44.500468], [-72.989515, 44.500419], [-72.989444, 44.500367], [-72.989378, 44.500313], [-72.989323, 44.500252], [-72.989278, 44.500185], [-72.989232, 44.500119], [-72.989173, 44.500061], [-72.989106, 44.500007], [-72.989039, 44.499953], [-72.988965, 44.499904], [-72.988881, 44.499862], [-72.988805, 44.499816], [-72.988743, 44.499761], [-72.988683, 44.499705], [-72.988609, 44.499662], [-72.988521, 44.49963], [-72.98843, 44.4996], [-72.988346, 44.49956], [-72.98827, 44.499509], [-72.988197, 44.499456], [-72.988112, 44.499417], [-72.988015, 44.499396], [-72.987912, 44.499382], [-72.987814, 44.49936], [-72.987726, 44.499327], [-72.987641, 44.499288], [-72.987555, 44.49925], [-72.987467, 44.499215], [-72.987378, 44.499179], [-72.98729, 44.499144], [-72.987198, 44.499114], [-72.987101, 44.499092], [-72.987007, 44.499067], [-72.986918, 44.499032], [-72.986831, 44.498994], [-72.986737, 44.498966], [-72.986637, 44.498951], [-72.986534, 44.498947], [-72.986431, 44.498947], [-72.986329, 44.498943], [-72.986229, 44.498931], [-72.986128, 44.498911], [-72.986028, 44.49889], [-72.985927, 44.49888], [-72.985827, 44.498887], [-72.985726, 44.498905], [-72.985625, 44.498927], [-72.985525, 44.498942], [-72.985425, 44.498946], [-72.985324, 44.498933], [-72.985223, 44.498919], [-72.985122, 44.49893], [-72.985021, 44.498957], [-72.98492, 44.498966], [-72.984819, 44.49895], [-72.984719, 44.498932], [-72.984618, 44.498931], [-72.984518, 44.498939], [-72.984418, 44.49895], [-72.98432, 44.498966], [-72.984226, 44.498993], [-72.984135, 44.49903], [-72.984044, 44.499065], [-72.983951, 44.499091], [-72.983854, 44.499108], [-72.983754, 44.49912], [-72.983655, 44.499134], [-72.983559, 44.499156], [-72.983461, 44.499171], [-72.983355, 44.499169], [-72.983246, 44.499158], [-72.983145, 44.499164], [-72.98306, 44.4992], [-72.982985, 44.499255], [-72.982905, 44.499303], [-72.982811, 44.499331], [-72.982717, 44.499357], [-72.982633, 44.499398], [-72.982551, 44.49944], [-72.982457, 44.499468], [-72.982358, 44.49949], [-72.982262, 44.499516], [-72.982165, 44.499546], [-72.982069, 44.499576], [-72.981978, 44.499613], [-72.981898, 44.499658], [-72.981827, 44.499709], [-72.981768, 44.499769], [-72.98172, 44.499836], [-72.981672, 44.499903], [-72.981618, 44.499965], [-72.981562, 44.500025], [-72.981511, 44.500087], [-72.981465, 44.500151], [-72.981417, 44.500215], [-72.981364, 44.500276], [-72.981305, 44.500334], [-72.981244, 44.500391], [-72.981186, 44.50045], [-72.981139, 44.500513], [-72.9811, 44.500579], [-72.981066, 44.500646], [-72.981033, 44.500714], [-72.981001, 44.500782], [-72.980971, 44.500851], [-72.980942, 44.50092], [-72.980914, 44.500989], [-72.980888, 44.501059], [-72.980864, 44.501129], [-72.980842, 44.501199], [-72.980821, 44.501269], [-72.980802, 44.50134], [-72.980788, 44.501411], [-72.980786, 44.501482], [-72.980799, 44.501555], [-72.980808, 44.501628], [-72.980791, 44.5017], [-72.980762, 44.501771], [-72.980754, 44.501841], [-72.98077, 44.501912], [-72.980791, 44.501983], [-72.980804, 44.502055], [-72.980814, 44.502128], [-72.980835, 44.502198], [-72.980873, 44.502265], [-72.980919, 44.502331], [-72.980958, 44.502398], [-72.980986, 44.502467], [-72.981011, 44.502536], [-72.981043, 44.502604], [-72.981075, 44.502672], [-72.981103, 44.502742], [-72.98114, 44.502808], [-72.981195, 44.502868], [-72.981259, 44.502925], [-72.981319, 44.502983], [-72.981381, 44.50304], [-72.98145, 44.503091], [-72.981518, 44.503145], [-72.981576, 44.503204], [-72.981637, 44.503262], [-72.981718, 44.503305], [-72.981812, 44.50334], [-72.981894, 44.503383], [-72.981956, 44.50344], [-72.98202, 44.503494], [-72.9821, 44.503535], [-72.982188, 44.50357], [-72.98227, 44.503612], [-72.98234, 44.503664], [-72.982406, 44.503721], [-72.982477, 44.503775], [-72.982556, 44.503819], [-72.982645, 44.503852], [-72.98274, 44.503877], [-72.982836, 44.5039], [-72.982929, 44.503928], [-72.983019, 44.50396], [-72.983108, 44.503993], [-72.983202, 44.504017], [-72.983297, 44.504038], [-72.983393, 44.504062], [-72.983488, 44.504088], [-72.983584, 44.50411], [-72.983682, 44.504126], [-72.983779, 44.504142], [-72.983876, 44.50416], [-72.983973, 44.504174], [-72.984073, 44.504176], [-72.984174, 44.504174], [-72.984274, 44.504182], [-72.984373, 44.504196], [-72.984473, 44.504205], [-72.984575, 44.504203], [-72.984678, 44.504192]]}}