{"type":"Feature","properties":{"length_m":2338,"traced":true},"geometry":{"type":"LineString","coordinates":[[-72.999172,44.499888],[-72.99899,44.499972],[-72.998872,44.500087],[-72.998174,44.500531],[-72.997971,44.500668],[-72.997767,44.500783],[-72.997166,44.501212],[-72.996726,44.501502],[-72.996393,44.501747],[-72.995857,44.50203],[-72.995353,44.502176],[-72.994859,44.502291],[-72.994097,44.502352],[-72.993604,44.502336],[-72.992949,44.502283],[-72.992284,44.502168],[-72.991673,44.501969],[-72.991158,44.501701],[-72.99075,44.501388],[-72.990278,44.500997],[-72.98883,44.49975],[-72.988615,44.499628],[-72.988186,44.499452],[-72.987746,44.499291],[-72.987199,44.499138],[-72.986652,44.498969],[-72.986147,44.498931],[-72.985643,44.498931],[-72.985289,44.498947],[-72.984463,44.498939],[-72.984012,44.499008],[-72.982993,44.499214],[-72.982575,44.49939],[-72.982103,44.499589],[-72.981716,44.499865],[-72.981395,44.500194],[-72.981158,44.500462],[-72.981019,44.500737],[-72.98089,44.501043],[-72.980783,44.501388],[-72.980751,44.501793],[-72.980815,44.502084],[-72.981019,44.502589],[-72.981212,44.502895],[-72.98147,44.503132],[-72.981834,44.503408],[-72.982081,44.503576],[-72.982457,44.503775],[-72.982918,44.503943],[-72.983218,44.504035],[-72.983691,44.504112],[-72.984002,44.504196],[-72.98471,44.504257]]}}
