{"type":"Feature","properties":{"length_m":6659,"traced":true},"geometry":{"type":"LineString","coordinates":[[-72.99355,44.502444],[-72.992413,44.500286],[-72.989666,44.500163],[-72.98722,44.500362],[-72.986147,44.500026],[-72.988851,44.497072],[-72.981834,44.490674],[-72.973058,44.49551],[-72.977993,44.497776],[-72.976749,44.50024],[-72.973187,44.500133],[-72.97205,44.501969],[-72.971985,44.502122],[-72.97868,44.505474],[-72.980161,44.504173],[-72.978466,44.503071],[-72.980633,44.501479],[-72.981427,44.500607],[-72.984495,44.500316],[-72.990847,44.503178],[-72.993464,44.502535]]}}
