{"type": "FeatureCollection", "features": [{"type": "Feature", "properties": {"passes": 1, "length_m": 542.0}, "geometry": {"type": "LineString", "coordinates": [[-72.9850793, 44.4991463], [-72.9850833, 44.4994366], [-72.9850475, 44.4995355], [-72.9850552, 44.499594], [-72.9850917, 44.4996674], [-72.985245, 44.4997678], [-72.9853252, 44.4998707], [-72.9853933, 44.5000443], [-72.985472, 44.5001348], [-72.9855293, 44.5002528], [-72.9855697, 44.5002964], [-72.9858776, 44.5004137], [-72.98593, 44.5004474], [-72.9859714, 44.5004932], [-72.9860143, 44.5005116], [-72.986242, 44.5005824], [-72.9864799, 44.5006236], [-72.9865573, 44.5006482], [-72.9868502, 44.5008305], [-72.9870283, 44.5008644], [-72.9872487, 44.5008493], [-72.9873492, 44.5008567], [-72.9876028, 44.5009228], [-72.9879358, 44.5009739], [-72.9880694, 44.5010069], [-72.9881611, 44.5010456], [-72.9882899, 44.5011784], [-72.9885072, 44.5013087], [-72.9886076, 44.5014609], [-72.9886445, 44.5014894], [-72.9887812, 44.5015333], [-72.9890183, 44.5015272], [-72.9891066, 44.5015431], [-72.9891582, 44.5015307], [-72.989197, 44.5015385], [-72.9892245, 44.5015718], [-72.9892081, 44.501632], [-72.9891584, 44.5016768], [-72.9889715, 44.5019657], [-72.9889295, 44.5019969], [-72.9888833, 44.5020033], [-72.9888576, 44.5020255]]}}, {"type": "Feature", "properties": {"passes": 2, "length_m": 42.6}, "geometry": {"type": "LineString", "coordinates": [[-72.9858098, 44.4988764], [-72.9858696, 44.4988661], [-72.9859669, 44.4988851], [-72.9862716, 44.4988824], [-72.9863388, 44.4988942]]}}, {"type": "Feature", "properties": {"passes": 2, "length_m": 7.6}, "geometry": {"type": "LineString", "coordinates": [[-72.9858098, 44.4988764], [-72.9858238, 44.498839], [-72.9858148, 44.4988103]]}}, {"type": "Feature", "properties": {"passes": 2, "length_m": 5.7}, "geometry": {"type": "LineString", "coordinates": [[-72.9858148, 44.4988103], [-72.9857689, 44.4987711]]}}, {"type": "Feature", "properties": {"passes": 1, "length_m": 268.1}, "geometry": {"type": "LineString", "coordinates": [[-72.9857689, 44.4987711], [-72.9856083, 44.4986902], [-72.9855114, 44.4986584], [-72.9854288, 44.4986525], [-72.9852501, 44.498667], [-72.9849816, 44.4986209], [-72.9847464, 44.4986529], [-72.9846996, 44.4986537], [-72.9846593, 44.4986411], [-72.9846648, 44.4986472], [-72.9846173, 44.4985861], [-72.9846122, 44.4984445], [-72.9845967, 44.4983944], [-72.9845596, 44.4983226], [-72.9845093, 44.4983132], [-72.9843879, 44.498346], [-72.9843173, 44.4983837], [-72.9842383, 44.498448], [-72.9841311, 44.4985665], [-72.9840756, 44.4986005], [-72.9837707, 44.4986555], [-72.9835323, 44.4987475], [-72.9831138, 44.4988295], [-72.9831174, 44.4988579]]}}, {"type": "Feature", "properties": {"passes": 1, "length_m": 3.7}, "geometry": {"type": "LineString", "coordinates": [[-72.9831174, 44.4988579], [-72.9830703, 44.4988577]]}}, {"type": "Feature", "properties": {"passes": 2, "length_m": 4.1}, "geometry": {"type": "LineString", "coordinates": [[-72.9830703, 44.4988577], [-72.9830641, 44.4988943]]}}, {"type": "Feature", "properties": {"passes": 2, "length_m": 52.6}, "geometry": {"type": "LineString", "coordinates": [[-72.9858098, 44.4988764], [-72.9857486, 44.4988723], [-72.98548, 44.4988999], [-72.9852587, 44.4988794], [-72.9851548, 44.4988943]]}}, {"type": "Feature", "properties": {"passes": 3, "length_m": 4.4}, "geometry": {"type": "LineString", "coordinates": [[-72.9851548, 44.4988943], [-72.9851344, 44.4989315]]}}, {"type": "Feature", "properties": {"passes": 3, "length_m": 8.2}, "geometry": {"type": "LineString", "coordinates": [[-72.9851344, 44.4989315], [-72.9851515, 44.4990046]]}}, {"type": "Feature", "properties": {"passes": 2, "length_m": 18.8}, "geometry": {"type": "LineString", "coordinates": [[-72.9851515, 44.4990046], [-72.9851494, 44.4991026], [-72.9851212, 44.4991374], [-72.9850793, 44.4991463]]}}, {"type": "Feature", "properties": {"passes": 5, "length_m": 132.8}, "geometry": {"type": "LineString", "coordinates": [[-72.9851548, 44.4988943], [-72.9848053, 44.498901], [-72.9845137, 44.4989249], [-72.9835805, 44.499061], [-72.9835175, 44.4990923]]}}, {"type": "Feature", "properties": {"passes": 2, "length_m": 126.6}, "geometry": {"type": "LineString", "coordinates": [[-72.9850793, 44.4991463], [-72.9850276, 44.4991456], [-72.9847816, 44.4990958], [-72.9846353, 44.4990796], [-72.9843085, 44.4991478], [-72.9842916, 44.4991588], [-72.9841455, 44.499176], [-72.9838021, 44.4992489], [-72.9837087, 44.4992566], [-72.9836045, 44.4992268], [-72.9835427, 44.4992363]]}}, {"type": "Feature", "properties": {"passes": 2, "length_m": 17.0}, "geometry": {"type": "LineString", "coordinates": [[-72.9835175, 44.4990923], [-72.9835667, 44.499189], [-72.9835427, 44.4992363]]}}, {"type": "Feature", "properties": {"passes": 2, "length_m": 17.1}, "geometry": {"type": "LineString", "coordinates": [[-72.9835427, 44.4992363], [-72.9833425, 44.4992923]]}}, {"type": "Feature", "properties": {"passes": 5, "length_m": 8.8}, "geometry": {"type": "LineString", "coordinates": [[-72.9834671, 44.4990923], [-72.9834467, 44.4990145]]}}, {"type": "Feature", "properties": {"passes": 5, "length_m": 9.4}, "geometry": {"type": "LineString", "coordinates": [[-72.9834467, 44.4990145], [-72.983357, 44.4989595]]}}, {"type": "Feature", "properties": {"passes": 2, "length_m": 27.4}, "geometry": {"type": "LineString", "coordinates": [[-72.983357, 44.4989595], [-72.98322, 44.4989289], [-72.9830898, 44.4989408], [-72.9830641, 44.4988943]]}}, {"type": "Feature", "properties": {"passes": 5, "length_m": 119.1}, "geometry": {"type": "LineString", "coordinates": [[-72.9834671, 44.4990923], [-72.9834018, 44.49912], [-72.9831219, 44.4991713], [-72.9828613, 44.4992806], [-72.9826828, 44.4993299], [-72.982449, 44.4994629], [-72.982333, 44.4995156], [-72.9822294, 44.4995376], [-72.982132, 44.4995422]]}}, {"type": "Feature", "properties": {"passes": 2, "length_m": 18.3}, "geometry": {"type": "LineString", "coordinates": [[-72.9830641, 44.4988943], [-72.9829978, 44.4989136], [-72.9829649, 44.498864], [-72.9829347, 44.4988764], [-72.9828877, 44.498872]]}}, {"type": "Feature", "properties": {"passes": 5, "length_m": 134.0}, "geometry": {"type": "LineString", "coordinates": [[-72.982132, 44.4995422], [-72.9821199, 44.4995724], [-72.9820624, 44.4995988], [-72.9818716, 44.4997295], [-72.9815574, 44.4999899], [-72.9812758, 44.5003003], [-72.9811697, 44.5004534], [-72.9811322, 44.5004693], [-72.9811301, 44.5004902]]}}, {"type": "Feature", "properties": {"passes": 1, "length_m": 115.5}, "geometry": {"type": "LineString", "coordinates": [[-72.982132, 44.4995422], [-72.9820734, 44.4994689], [-72.9819765, 44.4994154], [-72.9818522, 44.4993656], [-72.981744, 44.4993473], [-72.9813165, 44.4993459], [-72.9812264, 44.499335], [-72.9811527, 44.4993118], [-72.9810835, 44.4992703], [-72.980968, 44.4991555], [-72.980914, 44.4991203]]}}, {"type": "Feature", "properties": {"passes": 1, "length_m": 7.1}, "geometry": {"type": "LineString", "coordinates": [[-72.980914, 44.4991203], [-72.9808316, 44.499095]]}}, {"type": "Feature", "properties": {"passes": 2, "length_m": 7.0}, "geometry": {"type": "LineString", "coordinates": [[-72.9808316, 44.499095], [-72.9807466, 44.4991103]]}}, {"type": "Feature", "properties": {"passes": 5, "length_m": 22.0}, "geometry": {"type": "LineString", "coordinates": [[-72.9810741, 44.5004781], [-72.9810565, 44.500676]]}}, {"type": "Feature", "properties": {"passes": 5, "length_m": 27.2}, "geometry": {"type": "LineString", "coordinates": [[-72.9810741, 44.5004781], [-72.9810112, 44.5004556], [-72.9809679, 44.500355], [-72.9808887, 44.5002858]]}}, {"type": "Feature", "properties": {"passes": 5, "length_m": 10.2}, "geometry": {"type": "LineString", "coordinates": [[-72.9808887, 44.5002858], [-72.9807756, 44.5002415]]}}, {"type": "Feature", "properties": {"passes": 6, "length_m": 10.4}, "geometry": {"type": "LineString", "coordinates": [[-72.9807756, 44.5002415], [-72.9806458, 44.5002261]]}}, {"type": "Feature", "properties": {"passes": 7, "length_m": 10.5}, "geometry": {"type": "LineString", "coordinates": [[-72.9806458, 44.5002261], [-72.9806861, 44.5001948], [-72.9806933, 44.5001588], [-72.9806766, 44.5001484]]}}, {"type": "Feature", "properties": {"passes": 7, "length_m": 9.1}, "geometry": {"type": "LineString", "coordinates": [[-72.9806766, 44.5001484], [-72.9807748, 44.5001058]]}}, {"type": "Feature", "properties": {"passes": 2, "length_m": 11.4}, "geometry": {"type": "LineString", "coordinates": [[-72.9807748, 44.5001058], [-72.9808458, 44.5000167]]}}, {"type": "Feature", "properties": {"passes": 1, "length_m": 110.9}, "geometry": {"type": "LineString", "coordinates": [[-72.9808458, 44.5000167], [-72.9809389, 44.4999716], [-72.9809311, 44.4999132], [-72.9808886, 44.499854], [-72.9808064, 44.4998415], [-72.9806663, 44.499872], [-72.9806401, 44.4998623], [-72.9806502, 44.4998294], [-72.9806158, 44.4997868], [-72.9804852, 44.4997582], [-72.980057, 44.4997455], [-72.9798901, 44.4997582]]}}, {"type": "Feature", "properties": {"passes": 2, "length_m": 60.3}, "geometry": {"type": "LineString", "coordinates": [[-72.9807466, 44.4991103], [-72.9806999, 44.4992572], [-72.9806246, 44.4993579], [-72.9805131, 44.4993725], [-72.9802474, 44.4993222]]}}, {"type": "Feature", "properties": {"passes": 2, "length_m": 18.7}, "geometry": {"type": "LineString", "coordinates": [[-72.9802474, 44.4993222], [-72.9800188, 44.4993626]]}}, {"type": "Feature", "properties": {"passes": 3, "length_m": 4.2}, "geometry": {"type": "LineString", "coordinates": [[-72.9800188, 44.4993626], [-72.9799657, 44.4993623]]}}, {"type": "Feature", "properties": {"passes": 3, "length_m": 87.5}, "geometry": {"type": "LineString", "coordinates": [[-72.9807466, 44.4991103], [-72.9807137, 44.49908], [-72.9805234, 44.4990264], [-72.9804034, 44.4990007], [-72.9803431, 44.4990139], [-72.980145, 44.4991063], [-72.9800534, 44.4991728], [-72.9799801, 44.4992682], [-72.9799581, 44.4993182], [-72.9799657, 44.4993623]]}}, {"type": "Feature", "properties": {"passes": 7, "length_m": 32.3}, "geometry": {"type": "LineString", "coordinates": [[-72.9806458, 44.5002261], [-72.9803404, 44.5001919], [-72.9802457, 44.5002088]]}}, {"type": "Feature", "properties": {"passes": 7, "length_m": 18.8}, "geometry": {"type": "LineString", "coordinates": [[-72.9802457, 44.5002088], [-72.9800349, 44.5002858]]}}, {"type": "Feature", "properties": {"passes": 8, "length_m": 5.5}, "geometry": {"type": "LineString", "coordinates": [[-72.9800349, 44.5002858], [-72.9799694, 44.5003012]]}}, {"type": "Feature", "properties": {"passes": 9, "length_m": 4.3}, "geometry": {"type": "LineString", "coordinates": [[-72.9799694, 44.5003012], [-72.9799153, 44.5002981]]}}, {"type": "Feature", "properties": {"passes": 9, "length_m": 164.6}, "geometry": {"type": "LineString", "coordinates": [[-72.9799153, 44.5002981], [-72.9799262, 44.5003517], [-72.9798957, 44.500373], [-72.9798808, 44.5004106], [-72.9798373, 44.500456], [-72.9797698, 44.5005039], [-72.9796137, 44.5005453], [-72.9795499, 44.5005789], [-72.9794902, 44.500582], [-72.979295, 44.5005619], [-72.9791812, 44.5005708], [-72.9790038, 44.5006871], [-72.9789135, 44.5007184], [-72.9787989, 44.500794], [-72.9786846, 44.5008382], [-72.9786097, 44.5008964], [-72.9785592, 44.5009706], [-72.9784655, 44.501034], [-72.9784488, 44.5010703], [-72.9783787, 44.5010899]]}}, {"type": "Feature", "properties": {"passes": 3, "length_m": 38.2}, "geometry": {"type": "LineString", "coordinates": [[-72.9798901, 44.4994163], [-72.9798898, 44.499576], [-72.9798722, 44.4996705], [-72.9798901, 44.4997582]]}}, {"type": "Feature", "properties": {"passes": 5, "length_m": 30.9}, "geometry": {"type": "LineString", "coordinates": [[-72.9799153, 44.5002981], [-72.9798338, 44.5002684], [-72.979744, 44.5002556], [-72.9796348, 44.500223], [-72.9795638, 44.5001868]]}}, {"type": "Feature", "properties": {"passes": 5, "length_m": 4.0}, "geometry": {"type": "LineString", "coordinates": [[-72.9795638, 44.5001868], [-72.9795423, 44.5001543]]}}, {"type": "Feature", "properties": {"passes": 6, "length_m": 2.3}, "geometry": {"type": "LineString", "coordinates": [[-72.9795423, 44.5001543], [-72.9795375, 44.5001751]]}}, {"type": "Feature", "properties": {"passes": 1, "length_m": 154.4}, "geometry": {"type": "LineString", "coordinates": [[-72.9798901, 44.4994163], [-72.9797491, 44.4993793], [-72.979539, 44.4992801], [-72.9794709, 44.4992622], [-72.9794265, 44.4992351], [-72.9794311, 44.4992436], [-72.9793964, 44.4991948], [-72.979325, 44.4991685], [-72.9789418, 44.4991631], [-72.9788549, 44.4992213], [-72.9787972, 44.4992425], [-72.9785834, 44.4992512], [-72.9784014, 44.4992132], [-72.9782583, 44.4991455], [-72.9781883, 44.4990957]]}}, {"type": "Feature", "properties": {"passes": 3, "length_m": 39.0}, "geometry": {"type": "LineString", "coordinates": [[-72.9798901, 44.4997582], [-72.9797592, 44.4999031], [-72.9795707, 44.5000206]]}}, {"type": "Feature", "properties": {"passes": 3, "length_m": 5.0}, "geometry": {"type": "LineString", "coordinates": [[-72.9795707, 44.5000206], [-72.9795445, 44.5000619]]}}, {"type": "Feature", "properties": {"passes": 4, "length_m": 8.3}, "geometry": {"type": "LineString", "coordinates": [[-72.9795445, 44.5000619], [-72.9795124, 44.5000673], [-72.9795123, 44.5001181]]}}, {"type": "Feature", "properties": {"passes": 7, "length_m": 107.3}, "geometry": {"type": "LineString", "coordinates": [[-72.9795123, 44.5001181], [-72.9793957, 44.500118], [-72.9791206, 44.5002346], [-72.9789238, 44.5002588], [-72.9787623, 44.5002527], [-72.978419, 44.5003147], [-72.9782867, 44.5003514], [-72.978246, 44.500381]]}}, {"type": "Feature", "properties": {"passes": 7, "length_m": 2.6}, "geometry": {"type": "LineString", "coordinates": [[-72.978246, 44.500381], [-72.9782139, 44.5003799]]}}, {"type": "Feature", "properties": {"passes": 6, "length_m": 28.1}, "geometry": {"type": "LineString", "coordinates": [[-72.9782139, 44.5003799], [-72.9782115, 44.5003943], [-72.9778973, 44.5004741]]}}, {"type": "Feature", "properties": {"passes": 13, "length_m": 131.6}, "geometry": {"type": "LineString", "coordinates": [[-72.977623, 44.5026196], [-72.977735, 44.5025681], [-72.9778279, 44.5025096], [-72.9781424, 44.5022035], [-72.9782707, 44.5021073], [-72.9783494, 44.5020804], [-72.9784582, 44.5020772], [-72.9785575, 44.5020992], [-72.9787404, 44.5021764], [-72.9788702, 44.5022551]]}}, {"type": "Feature", "properties": {"passes": 13, "length_m": 6.5}, "geometry": {"type": "LineString", "coordinates": [[-72.9784795, 44.5041314], [-72.9785249, 44.5041804]]}}, {"type": "Feature", "properties": {"passes": 13, "length_m": 31.8}, "geometry": {"type": "LineString", "coordinates": [[-72.9785249, 44.5041804], [-72.9786794, 44.5044449]]}}, {"type": "Feature", "properties": {"passes": 10, "length_m": 69.7}, "geometry": {"type": "LineString", "coordinates": [[-72.9786794, 44.5044449], [-72.9787695, 44.5046517], [-72.9787661, 44.504704], [-72.9787132, 44.5047523], [-72.9784632, 44.5048203], [-72.9783289, 44.504775]]}}, {"type": "Feature", "properties": {"passes": 10, "length_m": 8.2}, "geometry": {"type": "LineString", "coordinates": [[-72.9783289, 44.504775], [-72.9782487, 44.5047281]]}}, {"type": "Feature", "properties": {"passes": 13, "length_m": 182.3}, "geometry": {"type": "LineString", "coordinates": [[-72.9784795, 44.5041314], [-72.9784493, 44.5040175], [-72.9782401, 44.5036362], [-72.9779769, 44.5032198], [-72.9778944, 44.5030497], [-72.9776345, 44.5027105], [-72.977623, 44.5026196]]}}, {"type": "Feature", "properties": {"passes": 13, "length_m": 16.5}, "geometry": {"type": "LineString", "coordinates": [[-72.9784795, 44.5041314], [-72.9784203, 44.5041514], [-72.978278, 44.5041494]]}}, {"type": "Feature", "properties": {"passes": 9, "length_m": 19.7}, "geometry": {"type": "LineString", "coordinates": [[-72.9783787, 44.5010899], [-72.9783645, 44.5011327], [-72.9783726, 44.5012261], [-72.9783468, 44.5012609]]}}, {"type": "Feature", "properties": {"passes": 9, "length_m": 3.4}, "geometry": {"type": "LineString", "coordinates": [[-72.9783468, 44.5012609], [-72.9783512, 44.501291]]}}, {"type": "Feature", "properties": {"passes": 8, "length_m": 14.2}, "geometry": {"type": "LineString", "coordinates": [[-72.9783512, 44.501291], [-72.9783058, 44.5013461], [-72.9782276, 44.5013779]]}}, {"type": "Feature", "properties": {"passes": 7, "length_m": 6.1}, "geometry": {"type": "LineString", "coordinates": [[-72.9783787, 44.5010899], [-72.9783034, 44.5010787]]}}, {"type": "Feature", "properties": {"passes": 7, "length_m": 10.7}, "geometry": {"type": "LineString", "coordinates": [[-72.9783034, 44.5010787], [-72.9782462, 44.5009918]]}}, {"type": "Feature", "properties": {"passes": 3, "length_m": 51.9}, "geometry": {"type": "LineString", "coordinates": [[-72.9782462, 44.5009918], [-72.9781307, 44.5009129], [-72.9780512, 44.5008272], [-72.9780324, 44.5007495], [-72.9780063, 44.5007081], [-72.9779536, 44.5006909], [-72.9778974, 44.5006461], [-72.9778881, 44.5006227]]}}, {"type": "Feature", "properties": {"passes": 3, "length_m": 3.3}, "geometry": {"type": "LineString", "coordinates": [[-72.9778881, 44.5006227], [-72.9778481, 44.5006136]]}}, {"type": "Feature", "properties": {"passes": 3, "length_m": 8.0}, "geometry": {"type": "LineString", "coordinates": [[-72.9782276, 44.5043113], [-72.9782543, 44.5043811]]}}, {"type": "Feature", "properties": {"passes": 3, "length_m": 7.5}, "geometry": {"type": "LineString", "coordinates": [[-72.9782543, 44.5043811], [-72.9783, 44.5044398]]}}, {"type": "Feature", "properties": {"passes": 2, "length_m": 16.7}, "geometry": {"type": "LineString", "coordinates": [[-72.9783, 44.5044398], [-72.978301, 44.5044897], [-72.9783225, 44.5045211], [-72.9783155, 44.5045402], [-72.9782517, 44.5045449]]}}, {"type": "Feature", "properties": {"passes": 5, "length_m": 5.9}, "geometry": {"type": "LineString", "coordinates": [[-72.978278, 44.5041494], [-72.9782371, 44.5041046]]}}, {"type": "Feature", "properties": {"passes": 5, "length_m": 11.8}, "geometry": {"type": "LineString", "coordinates": [[-72.9782371, 44.5041046], [-72.978097, 44.504069]]}}, {"type": "Feature", "properties": {"passes": 3, "length_m": 104.8}, "geometry": {"type": "LineString", "coordinates": [[-72.978097, 44.504069], [-72.9780418, 44.5040099], [-72.9779535, 44.5039651], [-72.9776742, 44.5038681], [-72.977368, 44.5038444], [-72.9773106, 44.5038509], [-72.9771476, 44.5038255], [-72.9770756, 44.5038331], [-72.9770333, 44.5038101], [-72.9768925, 44.5038254]]}}, {"type": "Feature", "properties": {"passes": 3, "length_m": 18.8}, "geometry": {"type": "LineString", "coordinates": [[-72.978278, 44.5041494], [-72.9782402, 44.5042231], [-72.9782464, 44.5042594], [-72.9782276, 44.5043113]]}}, {"type": "Feature", "properties": {"passes": 8, "length_m": 86.4}, "geometry": {"type": "LineString", "coordinates": [[-72.9782276, 44.5013779], [-72.9782162, 44.5014463], [-72.9781116, 44.5015796], [-72.9781032, 44.501629], [-72.9780846, 44.5016397], [-72.9779343, 44.5016838], [-72.9778906, 44.5016659], [-72.9778277, 44.5016623], [-72.9775002, 44.5016755], [-72.9774215, 44.5016658]]}}, {"type": "Feature", "properties": {"passes": 2, "length_m": 72.7}, "geometry": {"type": "LineString", "coordinates": [[-72.9782276, 44.5013779], [-72.9781246, 44.501344], [-72.9780111, 44.5013801], [-72.9777648, 44.5013941], [-72.9775671, 44.501442], [-72.9773459, 44.5014319]]}}, {"type": "Feature", "properties": {"passes": 3, "length_m": 112.8}, "geometry": {"type": "LineString", "coordinates": [[-72.9782276, 44.5043113], [-72.9781489, 44.5043194], [-72.9780733, 44.5043082], [-72.9779537, 44.5043131], [-72.977854, 44.5042952], [-72.9777263, 44.5042308], [-72.9775508, 44.504107], [-72.9774538, 44.5040615], [-72.976966, 44.5039281]]}}, {"type": "Feature", "properties": {"passes": 3, "length_m": 7.0}, "geometry": {"type": "LineString", "coordinates": [[-72.976966, 44.5039281], [-72.9769062, 44.5038819]]}}, {"type": "Feature", "properties": {"passes": 4, "length_m": 6.4}, "geometry": {"type": "LineString", "coordinates": [[-72.9769062, 44.5038819], [-72.9768925, 44.5038254]]}}, {"type": "Feature", "properties": {"passes": 10, "length_m": 5.1}, "geometry": {"type": "LineString", "coordinates": [[-72.9767162, 44.5038254], [-72.9766918, 44.5038682]]}}, {"type": "Feature", "properties": {"passes": 10, "length_m": 7.9}, "geometry": {"type": "LineString", "coordinates": [[-72.9766918, 44.5038682], [-72.9767098, 44.5039381]]}}, {"type": "Feature", "properties": {"passes": 8, "length_m": 90.8}, "geometry": {"type": "LineString", "coordinates": [[-72.9767098, 44.5039381], [-72.9768549, 44.5040775], [-72.9769448, 44.5042045], [-72.9769857, 44.5042383], [-72.9772567, 44.5043414], [-72.9774829, 44.5043608], [-72.9775815, 44.504384]]}}, {"type": "Feature", "properties": {"passes": 8, "length_m": 31.8}, "geometry": {"type": "LineString", "coordinates": [[-72.9775815, 44.504384], [-72.9778802, 44.5045739]]}}, {"type": "Feature", "properties": {"passes": 9, "length_m": 27.0}, "geometry": {"type": "LineString", "coordinates": [[-72.9778802, 44.5045739], [-72.9781227, 44.5046818], [-72.9781772, 44.5046837]]}}, {"type": "Feature", "properties": {"passes": 9, "length_m": 6.7}, "geometry": {"type": "LineString", "coordinates": [[-72.9765902, 44.5011259], [-72.9766407, 44.5010775]]}}, {"type": "Feature", "properties": {"passes": 9, "length_m": 1.1}, "geometry": {"type": "LineString", "coordinates": [[-72.9766407, 44.5010775], [-72.9766285, 44.5010722]]}}, {"type": "Feature", "properties": {"passes": 8, "length_m": 125.9}, "geometry": {"type": "LineString", "coordinates": [[-72.9766285, 44.5010722], [-72.9767439, 44.501023], [-72.9768361, 44.5009475], [-72.9769422, 44.5008131], [-72.9769667, 44.5007458], [-72.9769732, 44.5006657], [-72.9770325, 44.5005925], [-72.977121, 44.5005628], [-72.9773806, 44.5005833], [-72.9775695, 44.5005474], [-72.9776637, 44.5005494], [-72.9777773, 44.500526]]}}, {"type": "Feature", "properties": {"passes": 8, "length_m": 8.8}, "geometry": {"type": "LineString", "coordinates": [[-72.9777773, 44.500526], [-72.9778749, 44.5004887]]}}, {"type": "Feature", "properties": {"passes": 13, "length_m": 47.6}, "geometry": {"type": "LineString", "coordinates": [[-72.977623, 44.5026196], [-72.9775189, 44.5026269], [-72.9770437, 44.5025297]]}}, {"type": "Feature", "properties": {"passes": 8, "length_m": 45.4}, "geometry": {"type": "LineString", "coordinates": [[-72.9769933, 44.5021337], [-72.9771777, 44.5020914], [-72.9774333, 44.5021093], [-72.9775337, 44.5020601]]}}, {"type": "Feature", "properties": {"passes": 4, "length_m": 27.5}, "geometry": {"type": "LineString", "coordinates": [[-72.9774215, 44.5016658], [-72.977418, 44.5016006], [-72.9773924, 44.5015256], [-72.9773993, 44.501496], [-72.9773459, 44.5014319]]}}, {"type": "Feature", "properties": {"passes": 8, "length_m": 6.1}, "geometry": {"type": "LineString", "coordinates": [[-72.9774215, 44.5016658], [-72.9773488, 44.501683]]}}, {"type": "Feature", "properties": {"passes": 8, "length_m": 27.5}, "geometry": {"type": "LineString", "coordinates": [[-72.9773488, 44.501683], [-72.9770027, 44.5016883]]}}, {"type": "Feature", "properties": {"passes": 7, "length_m": 85.5}, "geometry": {"type": "LineString", "coordinates": [[-72.9770027, 44.5016883], [-72.9765493, 44.5016642], [-72.9763037, 44.5017096], [-72.9759353, 44.5017198]]}}, {"type": "Feature", "properties": {"passes": 3, "length_m": 69.9}, "geometry": {"type": "LineString", "coordinates": [[-72.9772704, 44.5014139], [-72.9772548, 44.5013297], [-72.9772061, 44.5012989], [-72.9767592, 44.501192], [-72.9766526, 44.501174], [-72.9766551, 44.5011829], [-72.9765902, 44.5011259]]}}, {"type": "Feature", "properties": {"passes": 5, "length_m": 120.0}, "geometry": {"type": "LineString", "coordinates": [[-72.9772704, 44.5014139], [-72.9772491, 44.5014561], [-72.9771869, 44.5014753], [-72.9768579, 44.5014654], [-72.9767273, 44.5014906], [-72.9765997, 44.501495], [-72.9763289, 44.5014593], [-72.9761625, 44.5014579], [-72.9760162, 44.5015004], [-72.9758597, 44.5015758]]}}, {"type": "Feature", "properties": {"passes": 10, "length_m": 23.4}, "geometry": {"type": "LineString", "coordinates": [[-72.9770437, 44.5025297], [-72.9770529, 44.5024869], [-72.9770354, 44.5023205]]}}, {"type": "Feature", "properties": {"passes": 10, "length_m": 21.0}, "geometry": {"type": "LineString", "coordinates": [[-72.9770354, 44.5023205], [-72.9769933, 44.5021337]]}}, {"type": "Feature", "properties": {"passes": 7, "length_m": 24.3}, "geometry": {"type": "LineString", "coordinates": [[-72.9770437, 44.5025297], [-72.9768311, 44.5025882], [-72.9767666, 44.5026196]]}}, {"type": "Feature", "properties": {"passes": 8, "length_m": 68.1}, "geometry": {"type": "LineString", "coordinates": [[-72.9769933, 44.5021337], [-72.9769155, 44.5021328], [-72.9768138, 44.5021548], [-72.9766815, 44.5021517], [-72.9765213, 44.5021999], [-72.976326, 44.5022375], [-72.9762899, 44.5022623], [-72.9762269, 44.5023307]]}}, {"type": "Feature", "properties": {"passes": 8, "length_m": 3.3}, "geometry": {"type": "LineString", "coordinates": [[-72.9762269, 44.5023307], [-72.9762171, 44.5023596]]}}, {"type": "Feature", "properties": {"passes": 9, "length_m": 5.8}, "geometry": {"type": "LineString", "coordinates": [[-72.9762171, 44.5023596], [-72.9762, 44.5023661], [-72.9762124, 44.5024037]]}}, {"type": "Feature", "properties": {"passes": 5, "length_m": 14.7}, "geometry": {"type": "LineString", "coordinates": [[-72.9768925, 44.5038254], [-72.9767949, 44.5038456], [-72.9767162, 44.5038254]]}}, {"type": "Feature", "properties": {"passes": 6, "length_m": 5.4}, "geometry": {"type": "LineString", "coordinates": [[-72.9767666, 44.5026196], [-72.9768074, 44.5026584]]}}, {"type": "Feature", "properties": {"passes": 6, "length_m": 9.3}, "geometry": {"type": "LineString", "coordinates": [[-72.9768074, 44.5026584], [-72.9767829, 44.5027404]]}}, {"type": "Feature", "properties": {"passes": 1, "length_m": 79.9}, "geometry": {"type": "LineString", "coordinates": [[-72.9767829, 44.5027404], [-72.9766857, 44.5029014], [-72.9765364, 44.5030811], [-72.9765019, 44.5032285], [-72.9764043, 44.5034002]]}}, {"type": "Feature", "properties": {"passes": 1, "length_m": 36.2}, "geometry": {"type": "LineString", "coordinates": [[-72.9764043, 44.5034002], [-72.9762901, 44.5037154]]}}, {"type": "Feature", "properties": {"passes": 12, "length_m": 9.0}, "geometry": {"type": "LineString", "coordinates": [[-72.9762901, 44.5037154], [-72.9762725, 44.5037399], [-72.9762124, 44.5037714]]}}, {"type": "Feature", "properties": {"passes": 7, "length_m": 18.3}, "geometry": {"type": "LineString", "coordinates": [[-72.9767666, 44.5026196], [-72.9766496, 44.5026211], [-72.9765399, 44.5026017]]}}, {"type": "Feature", "properties": {"passes": 13, "length_m": 41.4}, "geometry": {"type": "LineString", "coordinates": [[-72.9767162, 44.5038254], [-72.9766564, 44.5038396], [-72.9764144, 44.503779], [-72.9762124, 44.5037714]]}}, {"type": "Feature", "properties": {"passes": 9, "length_m": 39.1}, "geometry": {"type": "LineString", "coordinates": [[-72.9765902, 44.5011259], [-72.9765206, 44.5011021], [-72.9763333, 44.5010917], [-72.9762633, 44.5010656], [-72.9762206, 44.5010235], [-72.9761528, 44.5009994]]}}, {"type": "Feature", "properties": {"passes": 9, "length_m": 14.3}, "geometry": {"type": "LineString", "coordinates": [[-72.9761528, 44.5009994], [-72.9759733, 44.5010067]]}}, {"type": "Feature", "properties": {"passes": 10, "length_m": 7.7}, "geometry": {"type": "LineString", "coordinates": [[-72.9759733, 44.5010067], [-72.9758849, 44.5010359]]}}, {"type": "Feature", "properties": {"passes": 8, "length_m": 4.9}, "geometry": {"type": "LineString", "coordinates": [[-72.9765399, 44.5026017], [-72.9765471, 44.5025576]]}}, {"type": "Feature", "properties": {"passes": 8, "length_m": 10.9}, "geometry": {"type": "LineString", "coordinates": [[-72.9765471, 44.5025576], [-72.9764532, 44.5024858]]}}, {"type": "Feature", "properties": {"passes": 7, "length_m": 21.5}, "geometry": {"type": "LineString", "coordinates": [[-72.9764532, 44.5024858], [-72.976367, 44.5024446], [-72.9762612, 44.5024253], [-72.9762124, 44.5024037]]}}, {"type": "Feature", "properties": {"passes": 7, "length_m": 5.1}, "geometry": {"type": "LineString", "coordinates": [[-72.9765399, 44.5026017], [-72.9765018, 44.5026392]]}}, {"type": "Feature", "properties": {"passes": 7, "length_m": 3.1}, "geometry": {"type": "LineString", "coordinates": [[-72.9765018, 44.5026392], [-72.976465, 44.5026477]]}}, {"type": "Feature", "properties": {"passes": 2, "length_m": 62.5}, "geometry": {"type": "LineString", "coordinates": [[-72.976465, 44.5026477], [-72.9763885, 44.5026957], [-72.9760309, 44.5029747], [-72.975952, 44.5030712]]}}, {"type": "Feature", "properties": {"passes": 2, "length_m": 18.8}, "geometry": {"type": "LineString", "coordinates": [[-72.975952, 44.5030712], [-72.9759046, 44.5032373]]}}, {"type": "Feature", "properties": {"passes": 3, "length_m": 7.1}, "geometry": {"type": "LineString", "coordinates": [[-72.9759046, 44.5032373], [-72.9758685, 44.5032961]]}}, {"type": "Feature", "properties": {"passes": 3, "length_m": 14.4}, "geometry": {"type": "LineString", "coordinates": [[-72.9758685, 44.5032961], [-72.9757514, 44.5033952]]}}, {"type": "Feature", "properties": {"passes": 4, "length_m": 5.7}, "geometry": {"type": "LineString", "coordinates": [[-72.9757514, 44.5033952], [-72.9756834, 44.5034115]]}}, {"type": "Feature", "properties": {"passes": 13, "length_m": 4.8}, "geometry": {"type": "LineString", "coordinates": [[-72.9762124, 44.5024037], [-72.976153, 44.5023964]]}}, {"type": "Feature", "properties": {"passes": 14, "length_m": 50.8}, "geometry": {"type": "LineString", "coordinates": [[-72.976153, 44.5023964], [-72.9761095, 44.5024388], [-72.9760455, 44.5024274], [-72.9756467, 44.502499], [-72.9755574, 44.5024937]]}}, {"type": "Feature", "properties": {"passes": 10, "length_m": 11.4}, "geometry": {"type": "LineString", "coordinates": [[-72.9762124, 44.5037714], [-72.9761463, 44.5037468], [-72.9760864, 44.5037714]]}}, {"type": "Feature", "properties": {"passes": 3, "length_m": 11.8}, "geometry": {"type": "LineString", "coordinates": [[-72.9760864, 44.5037714], [-72.9760679, 44.5038214], [-72.9760253, 44.5038661]]}}, {"type": "Feature", "properties": {"passes": 3, "length_m": 5.5}, "geometry": {"type": "LineString", "coordinates": [[-72.9760253, 44.5038661], [-72.9760177, 44.5039154]]}}, {"type": "Feature", "properties": {"passes": 10, "length_m": 10.9}, "geometry": {"type": "LineString", "coordinates": [[-72.9760864, 44.5037714], [-72.9760545, 44.503735], [-72.9760621, 44.5037057], [-72.9760265, 44.5037061]]}}, {"type": "Feature", "properties": {"passes": 10, "length_m": 2.7}, "geometry": {"type": "LineString", "coordinates": [[-72.9760265, 44.5037061], [-72.9760295, 44.5036821]]}}, {"type": "Feature", "properties": {"passes": 12, "length_m": 26.1}, "geometry": {"type": "LineString", "coordinates": [[-72.9760295, 44.5036821], [-72.9759043, 44.5035899], [-72.97583, 44.5035595], [-72.9757666, 44.5035574]]}}, {"type": "Feature", "properties": {"passes": 12, "length_m": 2.6}, "geometry": {"type": "LineString", "coordinates": [[-72.9757666, 44.5035574], [-72.9757403, 44.503544]]}}, {"type": "Feature", "properties": {"passes": 13, "length_m": 4.7}, "geometry": {"type": "LineString", "coordinates": [[-72.9757403, 44.503544], [-72.9756834, 44.5035555]]}}, {"type": "Feature", "properties": {"passes": 11, "length_m": 13.9}, "geometry": {"type": "LineString", "coordinates": [[-72.9758597, 44.5016118], [-72.9759229, 44.5016642], [-72.9759353, 44.5017198]]}}, {"type": "Feature", "properties": {"passes": 13, "length_m": 52.1}, "geometry": {"type": "LineString", "coordinates": [[-72.9759353, 44.5017198], [-72.9759025, 44.5017639], [-72.9757713, 44.5018421], [-72.9757227, 44.5018591], [-72.9755831, 44.5018787], [-72.9753859, 44.5019464]]}}, {"type": "Feature", "properties": {"passes": 13, "length_m": 11.3}, "geometry": {"type": "LineString", "coordinates": [[-72.9753859, 44.5019464], [-72.975284, 44.5020177]]}}, {"type": "Feature", "properties": {"passes": 14, "length_m": 4.9}, "geometry": {"type": "LineString", "coordinates": [[-72.975284, 44.5020177], [-72.9752804, 44.5020618]]}}, {"type": "Feature", "properties": {"passes": 1, "length_m": 48.1}, "geometry": {"type": "LineString", "coordinates": [[-72.9758849, 44.5010359], [-72.9758529, 44.5012137], [-72.9758558, 44.5013486], [-72.9758047, 44.5014611]]}}, {"type": "Feature", "properties": {"passes": 1, "length_m": 4.6}, "geometry": {"type": "LineString", "coordinates": [[-72.9758047, 44.5014611], [-72.9758177, 44.5015017]]}}, {"type": "Feature", "properties": {"passes": 5, "length_m": 4.1}, "geometry": {"type": "LineString", "coordinates": [[-72.9758177, 44.5015017], [-72.9757996, 44.5015364]]}}, {"type": "Feature", "properties": {"passes": 9, "length_m": 6.5}, "geometry": {"type": "LineString", "coordinates": [[-72.9757996, 44.5015364], [-72.9758597, 44.5015758]]}}, {"type": "Feature", "properties": {"passes": 10, "length_m": 156.0}, "geometry": {"type": "LineString", "coordinates": [[-72.9758849, 44.5010359], [-72.9755291, 44.5010551], [-72.9754142, 44.5010451], [-72.9753444, 44.5010211], [-72.9752142, 44.5010052], [-72.975116, 44.5010252], [-72.9749942, 44.5010342], [-72.9747918, 44.5010015], [-72.9746475, 44.501012], [-72.974509, 44.5009998], [-72.974355, 44.5009509], [-72.974248, 44.5009523], [-72.9742284, 44.5009589], [-72.9741811, 44.5010173], [-72.9741301, 44.5011369]]}}, {"type": "Feature", "properties": {"passes": 10, "length_m": 7.9}, "geometry": {"type": "LineString", "coordinates": [[-72.9741301, 44.5011369], [-72.9740629, 44.5011894]]}}, {"type": "Feature", "properties": {"passes": 11, "length_m": 182.7}, "geometry": {"type": "LineString", "coordinates": [[-72.9740629, 44.5011894], [-72.9739414, 44.5012128], [-72.9736779, 44.5012343], [-72.9736341, 44.5012502], [-72.9736143, 44.5012696], [-72.9735721, 44.5013779], [-72.9734845, 44.5014809], [-72.9733107, 44.5016309], [-72.9731191, 44.5017437], [-72.9730431, 44.5018131], [-72.9729781, 44.5019012], [-72.9729293, 44.5020028], [-72.9728191, 44.5021201], [-72.9727609, 44.5022755], [-72.9727663, 44.5023241], [-72.9727975, 44.5023739]]}}, {"type": "Feature", "properties": {"passes": 11, "length_m": 8.2}, "geometry": {"type": "LineString", "coordinates": [[-72.9727975, 44.5023739], [-72.9728786, 44.5024195]]}}, {"type": "Feature", "properties": {"passes": 13, "length_m": 8.5}, "geometry": {"type": "LineString", "coordinates": [[-72.9728786, 44.5024195], [-72.9729849, 44.5024303]]}}, {"type": "Feature", "properties": {"passes": 14, "length_m": 32.0}, "geometry": {"type": "LineString", "coordinates": [[-72.9729849, 44.5024303], [-72.973262, 44.5024154], [-72.9733865, 44.502427]]}}, {"type": "Feature", "properties": {"passes": 14, "length_m": 14.0}, "geometry": {"type": "LineString", "coordinates": [[-72.9733865, 44.502427], [-72.9735567, 44.5024613]]}}, {"type": "Feature", "properties": {"passes": 19, "length_m": 4.9}, "geometry": {"type": "LineString", "coordinates": [[-72.9735567, 44.5024613], [-72.9736178, 44.5024577]]}}, {"type": "Feature", "properties": {"passes": 11, "length_m": 12.1}, "geometry": {"type": "LineString", "coordinates": [[-72.9758597, 44.5016118], [-72.9757075, 44.501619]]}}, {"type": "Feature", "properties": {"passes": 11, "length_m": 52.8}, "geometry": {"type": "LineString", "coordinates": [[-72.9757075, 44.501619], [-72.9750884, 44.5017923]]}}, {"type": "Feature", "properties": {"passes": 10, "length_m": 139.8}, "geometry": {"type": "LineString", "coordinates": [[-72.9750884, 44.5017923], [-72.9746399, 44.5020137], [-72.974372, 44.5020922], [-72.9743009, 44.502129], [-72.9741985, 44.5021553], [-72.9740365, 44.5022198], [-72.9737841, 44.5023495], [-72.973665, 44.5023986], [-72.9736178, 44.5024577]]}}, {"type": "Feature", "properties": {"passes": 13, "length_m": 16.1}, "geometry": {"type": "LineString", "coordinates": [[-72.9756834, 44.5034115], [-72.9756707, 44.5035037], [-72.9756834, 44.5035555]]}}, {"type": "Feature", "properties": {"passes": 2, "length_m": 6.7}, "geometry": {"type": "LineString", "coordinates": [[-72.9756834, 44.5034115], [-72.9756251, 44.5033679]]}}, {"type": "Feature", "properties": {"passes": 2, "length_m": 7.5}, "geometry": {"type": "LineString", "coordinates": [[-72.9756251, 44.5033679], [-72.9755762, 44.5033105]]}}, {"type": "Feature", "properties": {"passes": 1, "length_m": 83.4}, "geometry": {"type": "LineString", "coordinates": [[-72.9755762, 44.5033105], [-72.9755073, 44.5032728], [-72.9754882, 44.5032501], [-72.9754891, 44.5032046], [-72.9755526, 44.5030847], [-72.9754777, 44.5027936], [-72.9754567, 44.5026017]]}}, {"type": "Feature", "properties": {"passes": 15, "length_m": 8.4}, "geometry": {"type": "LineString", "coordinates": [[-72.9756834, 44.5035555], [-72.9755976, 44.5035539], [-72.9755922, 44.5035675]]}}, {"type": "Feature", "properties": {"passes": 15, "length_m": 9.5}, "geometry": {"type": "LineString", "coordinates": [[-72.9755922, 44.5035675], [-72.9754803, 44.5035977]]}}, {"type": "Feature", "properties": {"passes": 19, "length_m": 5.6}, "geometry": {"type": "LineString", "coordinates": [[-72.9754803, 44.5035977], [-72.9754287, 44.5036316]]}}, {"type": "Feature", "properties": {"passes": 20, "length_m": 4.1}, "geometry": {"type": "LineString", "coordinates": [[-72.9754287, 44.5036316], [-72.9753811, 44.5036455]]}}, {"type": "Feature", "properties": {"passes": 8, "length_m": 20.4}, "geometry": {"type": "LineString", "coordinates": [[-72.9755574, 44.5024937], [-72.9754563, 44.5023247]]}}, {"type": "Feature", "properties": {"passes": 14, "length_m": 15.7}, "geometry": {"type": "LineString", "coordinates": [[-72.9754563, 44.5023247], [-72.9753483, 44.5022064]]}}, {"type": "Feature", "properties": {"passes": 14, "length_m": 17.0}, "geometry": {"type": "LineString", "coordinates": [[-72.9753483, 44.5022064], [-72.9752804, 44.5020618]]}}, {"type": "Feature", "properties": {"passes": 14, "length_m": 16.0}, "geometry": {"type": "LineString", "coordinates": [[-72.9755574, 44.5024937], [-72.9755656, 44.5025333], [-72.9754567, 44.5026017]]}}, {"type": "Feature", "properties": {"passes": 7, "length_m": 93.5}, "geometry": {"type": "LineString", "coordinates": [[-72.9754567, 44.5026017], [-72.9753969, 44.5025906], [-72.9752808, 44.5026087], [-72.9752108, 44.5026405], [-72.9751562, 44.5026943], [-72.9751395, 44.5028304], [-72.975094, 44.5030088], [-72.9751163, 44.5032767]]}}, {"type": "Feature", "properties": {"passes": 7, "length_m": 4.2}, "geometry": {"type": "LineString", "coordinates": [[-72.9751163, 44.5032767], [-72.975101, 44.5033126]]}}, {"type": "Feature", "properties": {"passes": 15, "length_m": 6.2}, "geometry": {"type": "LineString", "coordinates": [[-72.975101, 44.5033126], [-72.9750536, 44.5033575]]}}, {"type": "Feature", "properties": {"passes": 20, "length_m": 100.0}, "geometry": {"type": "LineString", "coordinates": [[-72.9753811, 44.5036455], [-72.975318, 44.5037901], [-72.9749034, 44.5042233], [-72.9747571, 44.5044214]]}}, {"type": "Feature", "properties": {"passes": 20, "length_m": 41.9}, "geometry": {"type": "LineString", "coordinates": [[-72.9753811, 44.5036455], [-72.975225, 44.5035365], [-72.9750652, 44.5033998], [-72.9750536, 44.5033575]]}}, {"type": "Feature", "properties": {"passes": 14, "length_m": 7.8}, "geometry": {"type": "LineString", "coordinates": [[-72.9752804, 44.5020618], [-72.9751827, 44.5020618]]}}, {"type": "Feature", "properties": {"passes": 14, "length_m": 16.0}, "geometry": {"type": "LineString", "coordinates": [[-72.9751827, 44.5020618], [-72.9749867, 44.5020961]]}}, {"type": "Feature", "properties": {"passes": 9, "length_m": 107.2}, "geometry": {"type": "LineString", "coordinates": [[-72.9749867, 44.5020961], [-72.9748518, 44.5021498], [-72.9747524, 44.5022702], [-72.9746048, 44.5024095], [-72.9745183, 44.5024749], [-72.9743432, 44.5025674], [-72.9741591, 44.5027655], [-72.9740964, 44.5027996]]}}, {"type": "Feature", "properties": {"passes": 20, "length_m": 104.5}, "geometry": {"type": "LineString", "coordinates": [[-72.9750536, 44.5033575], [-72.9748055, 44.5033152], [-72.9745052, 44.5032101], [-72.9744258, 44.5031668], [-72.9741582, 44.5029377], [-72.9740896, 44.5028387], [-72.9740964, 44.5027996]]}}, {"type": "Feature", "properties": {"passes": 19, "length_m": 57.8}, "geometry": {"type": "LineString", "coordinates": [[-72.9740964, 44.5027996], [-72.9739988, 44.5027916], [-72.9739432, 44.5027577], [-72.9736179, 44.5025178], [-72.973604, 44.5024968], [-72.9736178, 44.5024577]]}}, {"type": "Feature", "properties": {"passes": 5, "length_m": 4.0}, "geometry": {"type": "LineString", "coordinates": [[-72.9835175, 44.4990923], [-72.9834671, 44.4990923]]}}, {"type": "Feature", "properties": {"passes": 3, "length_m": 8.5}, "geometry": {"type": "LineString", "coordinates": [[-72.9799657, 44.4993623], [-72.9798901, 44.4994163]]}}, {"type": "Feature", "properties": {"passes": 5, "length_m": 6.3}, "geometry": {"type": "LineString", "coordinates": [[-72.9773459, 44.5014319], [-72.9772704, 44.5014139]]}}, {"type": "Feature", "properties": {"passes": 11, "length_m": 4.0}, "geometry": {"type": "LineString", "coordinates": [[-72.9758597, 44.5015758], [-72.9758597, 44.5016118]]}}, {"type": "Feature", "properties": {"passes": 6, "length_m": 2.4}, "geometry": {"type": "LineString", "coordinates": [[-72.9778973, 44.5004741], [-72.9778749, 44.5004887]]}}, {"type": "Feature", "properties": {"passes": 6, "length_m": 6.6}, "geometry": {"type": "LineString", "coordinates": [[-72.9795375, 44.5001751], [-72.9795123, 44.5001181]]}}, {"type": "Feature", "properties": {"passes": 9, "length_m": 9.0}, "geometry": {"type": "LineString", "coordinates": [[-72.9782487, 44.5047281], [-72.9782012, 44.5047253], [-72.9781811, 44.5047095], [-72.9781772, 44.5046837]]}}, {"type": "Feature", "properties": {"passes": 2, "length_m": 8.2}, "geometry": {"type": "LineString", "coordinates": [[-72.9760177, 44.5039154], [-72.9760475, 44.5038448]]}}, {"type": "Feature", "properties": {"passes": 4, "length_m": 9.7}, "geometry": {"type": "LineString", "coordinates": [[-72.9760475, 44.5038448], [-72.9760974, 44.5038017], [-72.9760864, 44.5037714]]}}, {"type": "Feature", "properties": {"passes": 5, "length_m": 4.7}, "geometry": {"type": "LineString", "coordinates": [[-72.9811301, 44.5004902], [-72.9810741, 44.5004781]]}}, {"type": "Feature", "properties": {"passes": 5, "length_m": 21.6}, "geometry": {"type": "LineString", "coordinates": [[-72.9810565, 44.500676], [-72.9810854, 44.500561], [-72.9811301, 44.5004902]]}}]}